NORAD_CAT_ID,OBJECT_NAME,OBJECT_TYPE,EPOCH,MEAN_MOTION,ECCENTRICITY,INCLINATION,RA_OF_ASC_NODE,ARG_OF_PERICENTER,MEAN_ANOMALY,BSTAR,MEAN_MOTION_DOT,MEAN_MOTION_DDOT,TLE_LINE0,TLE_LINE1,TLE_LINE2,SEMIMAJOR_AXIS,PERIOD,APOGEE,PERIGEE,DECAYED
52309.0,STARLINK-3756,PAYLOAD,2022-10-03 12:09:46,15.08850693,0.0001837,53.2186,314.8783,43.464,316.6496,0.00010298,1.352e-05,0.0,0 STARLINK-3756,1 52309U 22041BA  22276.50679212  .00001352  00000-0  10298-3 0  9993,2 52309  53.2186 314.8783 0001837  43.4640 316.6496 15.08850693 26671,6917.848000000001,95.437,540.984,538.442,0.0
52309.0,STARLINK-3756,PAYLOAD,2022-10-03 20:06:41,15.08858504,0.0001888,53.2188,313.3921,39.9449,320.1682,0.00013166,1.809e-05,0.0,0 STARLINK-3756,1 52309U 22041BA  22276.83798465  .00001809  00000-0  13166-3 0  9995,2 52309  53.2188 313.3921 0001888  39.9449 320.1682 15.08858504 26726,6917.824000000001,95.436,540.995,538.383,0.0
52309.0,STARLINK-3756,PAYLOAD,2022-10-04 08:49:47,15.08841033,0.0002168,53.2195,311.0141,40.99800000000001,319.1175,0.00012661,1.727e-05,0.0,0 STARLINK-3756,1 52309U 22041BA  22277.36791441  .00001727  00000-0  12661-3 0  9999,2 52309  53.2195 311.0141 0002168  40.9980 319.1175 15.08841033 26800,6917.877,95.437,541.242,538.242,0.0
52309.0,STARLINK-3756,PAYLOAD,2022-10-04 19:57:29,15.08840716,0.0002227,53.2198,308.9326,41.2313,318.8847,0.00011896,1.606e-05,0.0,0 STARLINK-3756,1 52309U 22041BA  22277.83159418  .00001606  00000-0  11896-3 0  9998,2 52309  53.2198 308.9326 0002227  41.2313 318.8847 15.08840716 26879,6917.878000000002,95.438,541.284,538.203,0.0
52309.0,STARLINK-3756,PAYLOAD,2022-10-05 05:29:50,15.0876785,0.0001343,53.2205,307.1476,50.1355,309.9756,0.0010827999999999,0.00016953,0.0,0 STARLINK-3756,1 52309U 22041BA  22278.22905735  .00016953  00000-0  10828-2 0  9997,2 52309  53.2205 307.1476 0001343  50.1355 309.9756 15.08767850 26932,6918.101,95.442,540.895,539.0369999999998,0.0
52309.0,STARLINK-3756,PAYLOAD,2022-10-05 08:40:34,15.08841611,0.0001996,53.2198,306.5534,43.6358,316.4792,-5.4797e-05,-1.16e-05,0.0,0 STARLINK-3756,1 52309U 22041BA  22278.36151566 -.00001160  00000-0 -54797-4 0  9998,2 52309  53.2198 306.5534 0001996  43.6358 316.4792 15.08841611 26958,6917.875,95.437,541.121,538.36,0.0
52309.0,STARLINK-3756,PAYLOAD,2022-10-06 02:09:49,15.08831949,0.0001994,53.2194,303.2821,44.3761,315.7391,-1.4465e-05,-5.18e-06,0.0,0 STARLINK-3756,1 52309U 22041BA  22279.09016164 -.00000518  00000-0 -14465-4 0  9997,2 52309  53.2194 303.2821 0001994  44.3761 315.7391 15.08831949 27064,6917.905,95.438,541.149,538.391,0.0
52309.0,STARLINK-3756,PAYLOAD,2022-10-06 06:55:59,15.08831033,0.0002004,53.2191,302.39,44.1789,315.9363,-2.017e-05,-6.09e-06,0.0,0 STARLINK-3756,1 52309U 22041BA  22279.28888369 -.00000609  00000-0 -20170-4 0  9993,2 52309  53.2191 302.3900 0002004  44.1789 315.9363 15.08831033 27098,6917.908,95.438,541.159,538.386,0.0
52309.0,STARLINK-3756,PAYLOAD,2022-10-06 18:03:40,15.0884036,0.0001999,53.2185,300.307,43.82100000000001,316.2941,9.4776e-05,1.221e-05,0.0,0 STARLINK-3756,1 52309U 22041BA  22279.75255555  .00001221  00000-0  94776-4 0  9992,2 52309  53.2185 300.3070 0001999  43.8210 316.2941 15.08840360 27161,6917.879,95.438,541.127,538.361,0.0
52309.0,STARLINK-3756,PAYLOAD,2022-10-07 11:32:55,15.08838177,0.0002052,53.2179,297.0359,40.9527,319.1619,0.00012333,1.675e-05,0.0,0 STARLINK-3756,1 52309U 22041BA  22280.48119796  .00001675  00000-0  12333-3 0  9991,2 52309  53.2179 297.0359 0002052  40.9527 319.1619 15.08838177 27275,6917.886,95.438,541.1709999999998,538.331,0.0
52309.0,STARLINK-3756,PAYLOAD,2022-10-07 13:08:18,15.08844667,0.0001963,53.2175,296.7391,41.3278,318.7863,0.00010784,1.429e-05,0.0,0 STARLINK-3756,1 52309U 22041BA  22280.54743412  .00001429  00000-0  10784-3 0  9991,2 52309  53.2175 296.7391 0001963  41.3278 318.7863 15.08844667 27289,6917.866,95.437,541.089,538.373,0.0
52309.0,STARLINK-3756,PAYLOAD,2022-10-08 05:02:10,15.08828117,0.0001795,53.217,293.7653,45.0824,315.0314,5.3777e-05,5.68e-06,0.0,0 STARLINK-3756,1 52309U 22041BA  22281.20984657  .00000568  00000-0  53777-4 0  9996,2 52309  53.2170 293.7653 0001795  45.0824 315.0314 15.08828117 27387,6917.917,95.438,541.023,538.54,0.0
52309.0,STARLINK-3756,PAYLOAD,2022-10-08 09:48:20,15.08829326,0.0001829,53.2177,292.8736,43.0657,317.0478,5.5062e-05,5.88e-06,0.0,0 STARLINK-3756,1 52309U 22041BA  22281.40856710  .00000588  00000-0  55062-4 0  9997,2 52309  53.2177 292.8736 0001829  43.0657 317.0478 15.08829326 27416,6917.913000000001,95.438,541.043,538.513,0.0
52309.0,STARLINK-3756,PAYLOAD,2022-10-08 17:45:15,15.08840526,0.0002026,53.2178,291.3867,39.2328,320.8811,6.2319e-05,7.04e-06,0.0,0 STARLINK-3756,1 52309U 22041BA  22281.73976092  .00000704  00000-0  62319-4 0  9992,2 52309  53.2178 291.3867 0002026  39.2328 320.8811 15.08840526 27461,6917.879,95.438,541.145,538.342,0.0
52309.0,STARLINK-3756,PAYLOAD,2022-10-09 09:39:06,15.088448,0.0001916,53.2183,288.4139,44.32,315.7945,2.7641e-05,1.52e-06,0.0,0 STARLINK-3756,1 52309U 22041BA  22282.40215935  .00000152  00000-0  27641-4 0  9995,2 52309  53.2183 288.4139 0001916  44.3200 315.7945 15.08844800 27560,6917.866,95.437,541.056,538.405,0.0
52309.0,STARLINK-3756,PAYLOAD,2022-10-09 17:36:02,15.088389499999998,0.0001915,53.2169,286.9261,42.356,317.7579,-2.490800000000001e-05,-6.85e-06,0.0,0 STARLINK-3756,1 52309U 22041BA  22282.73336457 -.00000685  00000-0 -24908-4 0  9990,2 52309  53.2169 286.9261 0001915  42.3560 317.7579 15.08838950 27619,6917.884,95.438,541.073,538.424,0.0
52309.0,STARLINK-3756,PAYLOAD,2022-10-10 04:43:44,15.08838801,0.0001610999999999,53.2182,284.8452,32.9755,327.1337,0.00012356,1.679e-05,0.0,0 STARLINK-3756,1 52309U 22041BA  22283.19703855  .00001679  00000-0  12356-3 0  9996,2 52309  53.2182 284.8452 0001611  32.9755 327.1337 15.08838801 27686,6917.884,95.438,540.864,538.635,0.0
52309.0,STARLINK-3756,PAYLOAD,2022-10-10 07:54:30,15.08835986,0.0001948,53.2178,284.2506,41.8738,318.2403,9.6756e-05,1.252e-05,0.0,0 STARLINK-3756,1 52309U 22041BA  22283.32952214  .00001252  00000-0  96756-4 0  9990,2 52309  53.2178 284.2506 0001948  41.8738 318.2403 15.08835986 27707,6917.893,95.438,541.105,538.41,0.0
52309.0,STARLINK-3756,PAYLOAD,2022-10-10 17:26:49,15.08840661,0.000197,53.2174,282.4671,42.8739,317.2407,0.00014401,2.005e-05,0.0,0 STARLINK-3756,1 52309U 22041BA  22283.72695825  .00002005  00000-0  14401-3 0  9999,2 52309  53.2174 282.4671 0001970  42.8739 317.2407 15.08840661 27768,6917.878000000002,95.438,541.106,538.381,0.0
52309.0,STARLINK-3756,PAYLOAD,2022-10-11 09:20:41,15.08833216,0.0002011,53.2181,279.4914,45.7107,314.405,-4.4498e-05,-9.96e-06,0.0,0 STARLINK-3756,1 52309U 22041BA  22284.38936960 -.00000996  00000-0 -44498-4 0  9999,2 52309  53.2181 279.4914 0002011  45.7107 314.4050 15.08833216 27862,6917.901,95.438,541.1569999999998,538.375,0.0
52309.0,STARLINK-3756,PAYLOAD,2022-10-12 09:11:28,15.08833596,0.0001906,53.2179,275.0296,48.1279,311.9875,2.0711e-05,4.1e-07,0.0,0 STARLINK-3756,1 52309U 22041BA  22285.38297115  .00000041  00000-0  20711-4 0  9993,2 52309  53.2179 275.0296 0001906  48.1279 311.9875 15.08833596 28019,6917.9,95.438,541.0840000000002,538.446,0.0
52309.0,STARLINK-3756,PAYLOAD,2022-10-13 04:16:05,15.08837827,0.0001906,53.2177,271.4631,42.2496,317.8643,8.3198e-05,1.036e-05,0.0,0 STARLINK-3756,1 52309U 22041BA  22286.17784631  .00001036  00000-0  83198-4 0  9998,2 52309  53.2177 271.4631 0001906  42.2496 317.8643 15.08837827 28138,6917.887,95.438,541.071,538.433,0.0
52309.0,STARLINK-3756,PAYLOAD,2022-10-13 09:02:15,15.08839636,0.0001940999999999,53.2176,270.5714,41.583,318.531,0.00012474,1.698e-05,0.0,0 STARLINK-3756,1 52309U 22041BA  22286.37656389  .00001698  00000-0  12474-3 0  9990,2 52309  53.2176 270.5714 0001941  41.5830 318.5310 15.08839636 28164,6917.882,95.438,541.089,538.404,0.0
52309.0,STARLINK-3756,PAYLOAD,2022-10-14 05:42:16,15.08839361,0.0001919,53.2166,266.7058,36.9645,323.1479,4.1451000000000014e-05,3.72e-06,0.0,0 STARLINK-3756,1 52309U 22041BA  22287.23768869  .00000372  00000-0  41451-4 0  9999,2 52309  53.2166 266.7058 0001919  36.9645 323.1479 15.08839361 28295,6917.882,95.438,541.075,538.42,0.0
52309.0,STARLINK-3756,PAYLOAD,2022-10-15 03:57:40,15.08842581,0.0001803,53.2178,262.5433,45.9703,314.1437,3.0237e-05,1.93e-06,0.0,0 STARLINK-3756,1 52309U 22041BA  22288.16504636  .00000193  00000-0  30237-4 0  9993,2 52309  53.2178 262.5433 0001803  45.9703 314.1437 15.08842581 28434,6917.871999999999,95.437,540.985,538.49,0.0
52309.0,STARLINK-3756,PAYLOAD,2022-10-15 21:26:54,15.08841473,0.0001926,53.2178,259.2725,48.6971,311.4187,4.562600000000001e-05,4.38e-06,0.0,0 STARLINK-3756,1 52309U 22041BA  22288.89368581  .00000438  00000-0  45626-4 0  9990,2 52309  53.2178 259.2725 0001926  48.6971 311.4187 15.08841473 28547,6917.876,95.437,541.073,538.409,0.0
52309.0,STARLINK-3756,PAYLOAD,2022-10-16 10:10:00,15.08835164,0.0002002,53.2171,256.8932,39.0663,321.0474,-7.4813e-05,-1.479e-05,0.0,0 STARLINK-3756,1 52309U 22041BA  22289.42361406 -.00001479  00000-0 -74813-4 0  9997,2 52309  53.2171 256.8932 0002002  39.0663 321.0474 15.08835164 28626,6917.895,95.438,541.145,538.375,0.0
52309.0,STARLINK-3756,PAYLOAD,2022-10-16 14:56:09,15.08829879,0.0001807,53.2169,256.001,41.1529,318.96,-2.5431e-05,-6.93e-06,0.0,0 STARLINK-3756,1 52309U 22041BA  22289.62233637 -.00000693  00000-0 -25431-4 0  9992,2 52309  53.2169 256.0010 0001807  41.1529 318.9600 15.08829879 28654,6917.911,95.438,541.026,538.526,0.0
52309.0,STARLINK-3756,PAYLOAD,2022-10-17 06:50:00,15.088397199999998,0.0001704,53.2169,253.0274,36.4764,323.6344,8.5488e-06,-1.52e-06,0.0,0 STARLINK-3756,1 52309U 22041BA  22290.28473048 -.00000152  00000-0  85488-5 0  9996,2 52309  53.2169 253.0274 0001704  36.4764 323.6344 15.08839720 28752,6917.880999999999,95.438,540.925,538.567,0.0
